diff --git a/test/test_metar.py b/test/test_metar.py
index 3770baf..92e9534 100644
--- a/test/test_metar.py
+++ b/test/test_metar.py
@@ -39,6 +39,20 @@ def test_module():
     assert hasattr(metar, "__version__")
 
 
+def test_issue114_multiplebecominggroups():
+    """multiple BECMG (becoming) groups should be possible"""
+    code = (
+        "METAR WSSS 280900Z 26009KT 180V350 0600 R20R/1900D R20C/1600D +TSRA FEW008 SCT013CB FEW015TCU 24/23 Q1010 "
+        "BECMG FM0920 TL0930 3000 TSRA "
+        "BECMG FM1000 TL1020 6000 NSW"
+    )
+
+    metar = Metar.Metar(code)
+    assert metar.decode_completed
+    assert len(metar._trend_groups) == 10
+    assert metar.trend() == "BECMG FM0920 TL0930 3000 TSRA BECMG FM1000 TL1020 6000 NSW"
+
+
 @pytest.mark.parametrize("trailstr", ["", "=", "=  "])
 def test_issue84_trimequals(trailstr):
     """A trailing = in METAR should not trip up the ingest."""
@@ -602,3 +616,14 @@ def test_not_strict_mode():
     assert report.station_id == "K9L2"
     assert report.vis.value() == 10
     assert report.sky_conditions() == "clear"
+
+
+def test_cor_auto_mod():
+    """Test parsing of a COR AUTO Metar."""
+    code = (
+        "METAR KADW 252356Z COR AUTO 10008KT 10SM CLR 19/11 A2986 "
+        "RMK AO2 SLP117 T01880111 10230 20188 50004 $ COR 0007="
+    )
+    m = Metar.Metar(code, year=2019)
+
+    assert m.mod == 'COR AUTO'
